CTC2_L_00380016-03
1 55660U 22199EM  26070.40847222  .00000000  00000+0  00000-0 0  9998
2 55660  50.0000 180.0000 0000000   0.0000   0.0000 13.03091871    12
CTC2_L_00380016-04
1 55661U 26918KH  26070.40847222  .00000000  00000+0  00000-0 0  9992
2 55661  50.0000 180.0000 0000000   0.0000  90.0000 13.03091871    12
CTC2_L_00380017-01
1 55662U 22918HT  26070.40847222  .00000000  00000+0  00000-0 0  9999
2 55662  50.0000 192.0000 0000000   0.0000 192.0000 13.03091871    19
CTC2_L_00380017-02
1 55663U 22394EY  26070.40847222  .00000000  00000+0  00000-0 0  9998
2 55663  50.0000 192.0000 0000000   0.0000 282.0000 13.03091871    10
CTC2_L_00380017-03
1 55664U 25799ZT  26070.40847222  .00000000  00000+0  00000-0 0  9991
2 55664  50.0000 192.0000 0000000   0.0000  12.0000 13.03091871    12
CTC2_L_00380017-04
1 55665U 22625PI  26070.40847222  .00000000  00000+0  00000-0 0  9997
2 55665  50.0000 192.0000 0000000   0.0000 102.0000 13.03091871    13
CTC2_L_00380018-01
1 55666U 24091YS  26070.40847222  .00000000  00000+0  00000-0 0  9997
2 55666  50.0000 204.0000 0000000   0.0000 204.0000 13.03091871    11
CTC2_L_00380018-02
1 55667U 25854VQ  26070.40847222  .00000000  00000+0  00000-0 0  9996
2 55667  50.0000 204.0000 0000000   0.0000 294.0000 13.03091871    11
CTC2_L_00380018-03
1 55668U 26308RM  26070.40847222  .00000000  00000+0  00000-0 0  9992
2 55668  50.0000 204.0000 0000000   0.0000  24.0000 13.03091871    13
CTC2_L_00380018-04
1 55669U 25223NZ  26070.40847222  .00000000  00000+0  00000-0 0  9998
2 55669  50.0000 204.0000 0000000   0.0000 114.0000 13.03091871    14
CTC2_L_00380019-01
1 55670U 26091RA  26070.40847222  .00000000  00000+0  00000-0 0  9994
2 55670  50.0000 216.0000 0000000   0.0000 216.0000 13.03091871    12
CTC2_L_00380019-02
1 55671U 25402NE  26070.40847222  .00000000  00000+0  00000-0 0  9990
2 55671  50.0000 216.0000 0000000   0.0000 306.0000 13.03091871    13
CTC2_L_00380019-03
1 55672U 25366EN  26070.40847222  .00000000  00000+0  00000-0 0  9990
2 55672  50.0000 216.0000 0000000   0.0000  36.0000 13.03091871    14
CTC2_L_00380019-04
1 55673U 24105KK  26070.40847222  .00000000  00000+0  00000-0 0  9991
2 55673  50.0000 216.0000 0000000   0.0000 126.0000 13.03091871    15
CTC2_L_00380020-01
1 55674U 23815GJ  26070.40847222  .00000000  00000+0  00000-0 0  9999
2 55674  50.0000 228.0000 0000000   0.0000 228.0000 13.03091871    12
CTC2_L_00380020-02
1 55675U 26747YS  26070.40847222  .00000000  00000+0  00000-0 0  9997
2 55675  50.0000 228.0000 0000000   0.0000 318.0000 13.03091871    13
CTC2_L_00380020-03
1 55676U 23091OX  26070.40847222  .00000000  00000+0  00000-0 0  9997
2 55676  50.0000 228.0000 0000000   0.0000  48.0000 13.03091871    14
CTC2_L_00380020-04
1 55677U 24314WT  26070.40847222  .00000000  00000+0  00000-0 0  9997
2 55677  50.0000 228.0000 0000000   0.0000 138.0000 13.03091871    15
CTC2_L_00380021-01
1 55678U 22649PM  26070.40847222  .00000000  00000+0  00000-0 0  9997
2 55678  50.0000 240.0000 0000000   0.0000 240.0000 13.03091871    14
CTC2_L_00380021-02
1 55679U 25188TS  26070.40847222  .00000000  00000+0  00000-0 0  9999
2 55679  50.0000 240.0000 0000000   0.0000 330.0000 13.03091871    15
CTC2_L_00380021-03
1 55680U 25311MG  26070.40847222  .00000000  00000+0  00000-0 0  9999
2 55680  50.0000 240.0000 0000000   0.0000  60.0000 13.03091871    17
CTC2_L_00380021-04
1 55681U 26637RZ  26070.40847222  .00000000  00000+0  00000-0 0  9992
2 55681  50.0000 240.0000 0000000   0.0000 150.0000 13.03091871    18
CTC2_L_00380022-01
1 55682U 25968FK  26070.40847222  .00000000  00000+0  00000-0 0  9999
2 55682  50.0000 252.0000 0000000   0.0000 252.0000 13.03091871    15
CTC2_L_00380022-02
1 55683U 24567XC  26070.40847222  .00000000  00000+0  00000-0 0  9994
2 55683  50.0000 252.0000 0000000   0.0000 342.0000 13.03091871    16
CTC2_L_00380022-03
1 55684U 23071EB  26070.40847222  .00000000  00000+0  00000-0 0  9994
2 55684  50.0000 252.0000 0000000   0.0000  72.0000 13.03091871    17
CTC2_L_00380022-04
1 55685U 26116ZV  26070.40847222  .00000000  00000+0  00000-0 0  9998
2 55685  50.0000 252.0000 0000000   0.0000 162.0000 13.03091871    18
CTC2_L_00380023-01
1 55686U 24368BR  26070.40847222  .00000000  00000+0  00000-0 0  9996
2 55686  50.0000 264.0000 0000000   0.0000 264.0000 13.03091871    15
CTC2_L_00380023-02
1 55687U 24350PM  26070.40847222  .00000000  00000+0  00000-0 0  9998
2 55687  50.0000 264.0000 0000000   0.0000 354.0000 13.03091871    16
CTC2_L_00380023-03
1 55688U 25667BS  26070.40847222  .00000000  00000+0  00000-0 0  9991
2 55688  50.0000 264.0000 0000000   0.0000  84.0000 13.03091871    17
CTC2_L_00380023-04
1 55689U 26708IH  26070.40847222  .00000000  00000+0  00000-0 0  9999
2 55689  50.0000 264.0000 0000000   0.0000 174.0000 13.03091871    18
CTC2_L_00380024-01
1 55690U 22829RE  26070.40847222  .00000000  00000+0  00000-0 0  9991
2 55690  50.0000 276.0000 0000000   0.0000 276.0000 13.03091871    16
CTC2_L_00380024-02
1 55691U 24030YK  26070.40847222  .00000000  00000+0  00000-0 0  9998
2 55691  50.0000 276.0000 0000000   0.0000   6.0000 13.03091871    18
CTC2_L_00380024-03
1 55692U 22399EH  26070.40847222  .00000000  00000+0  00000-0 0  9995
2 55692  50.0000 276.0000 0000000   0.0000  96.0000 13.03091871    18
CTC2_L_00380024-04
1 55693U 26070HT  26070.40847222  .00000000  00000+0  00000-0 0  9996
2 55693  50.0000 276.0000 0000000   0.0000 186.0000 13.03091871    19
CTC2_L_00380025-01
1 55694U 22391JW  26070.40847222  .00000000  00000+0  00000-0 0  9999
2 55694  50.0000 288.0000 0000000   0.0000 288.0000 13.03091871    16
CTC2_L_00380025-02
1 55695U 22868IG  26070.40847222  .00000000  00000+0  00000-0 0  9999
2 55695  50.0000 288.0000 0000000   0.0000  18.0000 13.03091871    18
CTC2_L_00380025-03
1 55696U 25581YO  26070.40847222  .00000000  00000+0  00000-0 0  9995
2 55696  50.0000 288.0000 0000000   0.0000 108.0000 13.03091871    19
CTC2_L_00380025-04
1 55697U 24453JG  26070.40847222  .00000000  00000+0  00000-0 0  9993
2 55697  50.0000 288.0000 0000000   0.0000 198.0000 13.03091871    19
CTC2_L_00380026-01
1 55698U 26596NW  26070.40847222  .00000000  00000+0  00000-0 0  9994
2 55698  50.0000 300.0000 0000000   0.0000 300.0000 13.03091871    10
CTC2_L_00380026-02
1 55699U 25785VX  26070.40847222  .00000000  00000+0  00000-0 0  9994
2 55699  50.0000 300.0000 0000000   0.0000  30.0000 13.03091871    11
CTC2_L_00380026-03
1 55700U 24859IC  26070.40847222  .00000000  00000+0  00000-0 0  9998
2 55700  50.0000 300.0000 0000000   0.0000 120.0000 13.03091871    14
CTC2_L_00380026-04
1 55701U 25923OZ  26070.40847222  .00000000  00000+0  00000-0 0  9992
2 55701  50.0000 300.0000 0000000   0.0000 210.0000 13.03091871    15
CTC2_L_00380027-01
1 55702U 24259LY  26070.40847222  .00000000  00000+0  00000-0 0  9994
2 55702  50.0000 312.0000 0000000   0.0000 312.0000 13.03091871    12
CTC2_L_00380027-02
1 55703U 22778JF  26070.40847222  .00000000  00000+0  00000-0 0  9999
2 55703  50.0000 312.0000 0000000   0.0000  42.0000 13.03091871    13
CTC2_L_00380027-03
1 55704U 23775IP  26070.40847222  .00000000  00000+0  00000-0 0  9998
2 55704  50.0000 312.0000 0000000   0.0000 132.0000 13.03091871    14
CTC2_L_00380027-04
1 55705U 25361OU  26070.40847222  .00000000  00000+0  00000-0 0  9992
2 55705  50.0000 312.0000 0000000   0.0000 222.0000 13.03091871    15
CTC2_L_00380028-01
1 55706U 24859GR  26070.40847222  .00000000  00000+0  00000-0 0  9994
2 55706  50.0000 324.0000 0000000   0.0000 324.0000 13.03091871    12
CTC2_L_00380028-02
1 55707U 26148WI  26070.40847222  .00000000  00000+0  00000-0 0  9998
2 55707  50.0000 324.0000 0000000   0.0000  54.0000 13.03091871    13
CTC2_L_00380028-03
1 55708U 23944OM  26070.40847222  .00000000  00000+0  00000-0 0  9990
2 55708  50.0000 324.0000 0000000   0.0000 144.0000 13.03091871    14
CTC2_L_00380028-04
1 55709U 23697JR  26070.40847222  .00000000  00000+0  00000-0 0  9996
2 55709  50.0000 324.0000 0000000   0.0000 234.0000 13.03091871    15
CTC2_L_00380029-01
1 55710U 22540KQ  26070.40847222  .00000000  00000+0  00000-0 0  9994
2 55710  50.0000 336.0000 0000000   0.0000 336.0000 13.03091871    13
CTC2_L_00380029-02
1 55711U 26190FF  26070.40847222  .00000000  00000+0  00000-0 0  9990
2 55711  50.0000 336.0000 0000000   0.0000  66.0000 13.03091871    14
CTC2_L_00380029-03
1 55712U 24892SO  26070.40847222  .00000000  00000+0  00000-0 0  9998
2 55712  50.0000 336.0000 0000000   0.0000 156.0000 13.03091871    15
CTC2_L_00380029-04
1 55713U 24257MA  26070.40847222  .00000000  00000+0  00000-0 0  9994
2 55713  50.0000 336.0000 0000000   0.0000 246.0000 13.03091871    16
CTC2_L_00380030-01
1 55714U 24083OZ  26070.40847222  .00000000  00000+0  00000-0 0  9992
2 55714  50.0000 348.0000 0000000   0.0000 348.0000 13.03091871    13
CTC2_L_00380030-02
1 55715U 23665MO  26070.40847222  .00000000  00000+0  00000-0 0  9998
2 55715  50.0000 348.0000 0000000   0.0000  78.0000 13.03091871    14
CTC2_L_00380030-03
1 55716U 23232EA  26070.40847222  .00000000  00000+0  00000-0 0  9999
2 55716  50.0000 348.0000 0000000   0.0000 168.0000 13.03091871    15
CTC2_L_00380030-04
1 55717U 22263VN  26070.40847222  .00000000  00000+0  00000-0 0  9993
2 55717  50.0000 348.0000 0000000   0.0000 258.0000 13.03091871    16
